{"type":"FeatureCollection","features":[{"type":"Feature","id":1,"geometry":{"type":"Polygon","coordinates":[[[-59.630359099999964,13.137887000000035],[-59.630343099999948,13.137895000000071],[-59.630372899999941,13.137951500000042],[-59.630387199999973,13.137944400000038],[-59.630409499999985,13.137986700000056],[-59.630396599999983,13.137993200000039],[-59.630408199999977,13.138015200000041],[-59.630421599999977,13.138008500000069],[-59.630434899999955,13.138033700000051],[-59.630422999999951,13.138039700000036],[-59.630448799999954,13.138088500000038],[-59.630468199999939,13.138078800000073],[-59.63048299999997,13.138106900000025],[-59.630859899999962,13.137917800000025],[-59.630776499999968,13.137760100000037],[-59.630828299999962,13.137734200000068],[-59.630739199999937,13.137565700000039],[-59.630610499999932,13.137630200000046],[-59.630635699999971,13.13767770000004],[-59.630575799999974,13.137707800000044],[-59.630583599999966,13.137721200000044],[-59.630547699999966,13.137761800000021],[-59.630528699999957,13.137754400000063],[-59.630508799999973,13.137753400000065],[-59.630495599999961,13.137763000000064],[-59.630485099999987,13.137782100000038],[-59.630490299999963,13.137800700000071],[-59.630459899999948,13.137811400000032],[-59.630436399999951,13.137764100000027],[-59.630323899999951,13.137820500000032],[-59.630359099999964,13.137887000000035]],[[-59.630548999999974,13.137951000000044],[-59.630536099999972,13.137925900000027],[-59.630550699999958,13.137894500000073],[-59.630573799999979,13.137904700000036],[-59.630594599999938,13.137896900000044],[-59.630600499999957,13.137878000000057],[-59.630601999999953,13.137852400000043],[-59.630633199999977,13.137837300000058],[-59.63066299999997,13.137895700000058],[-59.630548999999974,13.137951000000044]],[[-59.630588099999954,13.137814700000035],[-59.630564199999981,13.137779500000022],[-59.630593599999941,13.137760600000036],[-59.630617499999971,13.137795800000049],[-59.630588099999954,13.137814700000035]]]},"properties":{"OBJECTID":1,"FID":0,"name":"School of Business","Shape_Length":0.0024549423159305325,"Shape_Area":1.4319269499589116e-07}},{"type":"Feature","id":2,"geometry":{"type":"Polygon","coordinates":[[[-59.627406399999984,13.134253500000057],[-59.627527499999985,13.134304000000043],[-59.627483299999938,13.134404500000073],[-59.627607099999977,13.134456100000023],[-59.627624699999956,13.134434600000077],[-59.627631599999972,13.134444600000052],[-59.627728799999943,13.134408800000074],[-59.627710399999955,13.134361400000046],[-59.62805469999995,13.13423460000007],[-59.627981899999952,13.134047300000077],[-59.627771699999983,13.134124800000052],[-59.627747599999964,13.134062700000072],[-59.627782799999977,13.134049700000048],[-59.627757699999961,13.133985300000063],[-59.627821299999937,13.133961900000031],[-59.627793699999984,13.133890600000029],[-59.627621399999953,13.133954000000074],[-59.627602899999943,13.133906500000023],[-59.627390299999945,13.133984800000064],[-59.627423999999962,13.134071600000027],[-59.627313599999979,13.134112200000061],[-59.627336699999944,13.134171900000069],[-59.627316199999939,13.134179500000073],[-59.627337199999943,13.134233400000028],[-59.627275999999938,13.13425600000005],[-59.627318999999943,13.134366600000021],[-59.62743299999994,13.13432460000007],[-59.627406399999984,13.134253500000057]],[[-59.627505799999938,13.134228200000052],[-59.627455399999974,13.134209000000055],[-59.627494399999932,13.134111500000074],[-59.627531999999974,13.134125800000049],[-59.627562899999987,13.134048600000028],[-59.627629299999967,13.134073900000033],[-59.627572599999951,13.134215500000039],[-59.627505799999938,13.134228200000052]]]},"properties":{"OBJECTID":2,"FID":1,"name":"Faculty of Law","Shape_Length":0.0034496646542928229,"Shape_Area":2.251226400003482e-07}},{"type":"Feature","id":3,"geometry":{"type":"Polygon","coordinates":[[[-59.633386899999948,13.133413200000064],[-59.633367499999963,13.133316300000047],[-59.633198099999959,13.133342900000059],[-59.633211899999935,13.133443900000032],[-59.633386899999948,13.133413200000064]]]},"properties":{"OBJECTID":3,"FID":2,"name":"Tiger Market","Shape_Length":0.00054990947108031095,"Shape_Area":1.7514779999210848e-08}},{"type":"Feature","id":4,"geometry":{"type":"Polygon","coordinates":[[[-59.633198099999959,13.133342900000059],[-59.633367499999963,13.133316300000047],[-59.633362599999941,13.133286600000076],[-59.633351399999981,13.133219100000076],[-59.633414699999946,13.133209200000067],[-59.633403399999963,13.133140800000035],[-59.633389199999954,13.133055200000058],[-59.633156499999984,13.133091800000045],[-59.633170699999937,13.133177800000055],[-59.633193199999937,13.133313600000065],[-59.633198099999959,13.133342900000059]]]},"properties":{"OBJECTID":4,"FID":3,"name":"Black Rock Service Station","Shape_Length":0.00098024990361135749,"Shape_Area":5.3659195004016356e-08}},{"type":"Feature","id":5,"geometry":{"type":"Polygon","coordinates":[[[-59.632656399999973,13.133109600000068],[-59.632818699999973,13.133073400000058],[-59.632763299999965,13.132837800000061],[-59.632600999999966,13.13287420000006],[-59.632656399999973,13.133109600000068]]]},"properties":{"OBJECTID":5,"FID":4,"name":"Keith Hunte Hall","Shape_Length":0.00081647688738030813,"Shape_Area":4.0232670000816355e-08}},{"type":"Feature","id":6,"geometry":{"type":"Polygon","coordinates":[[[-59.631611599999985,13.132094800000061],[-59.631740299999933,13.132135500000061],[-59.631812999999966,13.131917300000055],[-59.631684299999961,13.131876600000055],[-59.631611599999985,13.132094800000061]]]},"properties":{"OBJECTID":6,"FID":5,"name":"Big Bite","Shape_Length":0.0007299492067002392,"Shape_Area":3.10412299957615e-08}},{"type":"Feature","id":7,"geometry":{"type":"Polygon","coordinates":[[[-59.631529699999987,13.132669900000053],[-59.631605699999966,13.132662000000039],[-59.631595499999946,13.132569700000033],[-59.631519599999933,13.132577600000047],[-59.631529699999987,13.132669900000053]]]},"properties":{"OBJECTID":7,"FID":6,"name":"TNT Barbeque Hut","Shape_Length":0.00033843235703706186,"Shape_Area":7.0903700004836382e-09}},{"type":"Feature","id":8,"geometry":{"type":"Polygon","coordinates":[[[-59.631726799999967,13.136999100000025],[-59.631840199999942,13.136927100000037],[-59.631793799999969,13.136857600000042],[-59.631883099999982,13.136801000000048],[-59.631800899999973,13.13667810000004],[-59.631680199999948,13.13675470000004],[-59.631637499999954,13.136690900000076],[-59.631555499999934,13.136742900000058],[-59.631726799999967,13.136999100000025]]]},"properties":{"OBJECTID":8,"FID":7,"name":"Errol Barrow Centre for Creative Imagination","Shape_Length":0.0010964886674711242,"Shape_Area":5.4159440001465344e-08}},{"type":"Feature","id":9,"geometry":{"type":"Polygon","coordinates":[[[-59.631296799999973,13.137091300000066],[-59.631404599999939,13.137010900000064],[-59.631324499999948,13.13690900000006],[-59.631216599999959,13.136989300000039],[-59.631296799999973,13.137091300000066]]]},"properties":{"OBJECTID":9,"FID":8,"name":"Rex Nettleford Performance Complex","Shape_Length":0.0005283485260827803,"Shape_Area":1.7435359998818345e-08}},{"type":"Feature","id":10,"geometry":{"type":"Polygon","coordinates":[[[-59.631243799999936,13.136224600000048],[-59.631330899999966,13.136142100000029],[-59.631357999999977,13.136169300000063],[-59.631435099999976,13.136096200000054],[-59.631407999999965,13.136069100000043],[-59.631489099999953,13.135992300000055],[-59.631399499999986,13.135902600000065],[-59.631154199999969,13.136134800000036],[-59.631243799999936,13.136224600000048]]]},"properties":{"OBJECTID":10,"FID":9,"name":"3Ws Oval Pavilion","Shape_Length":0.0010060390412115917,"Shape_Area":4.6896724995544621e-08}},{"type":"Feature","id":11,"geometry":{"type":"Polygon","coordinates":[[[-59.630586699999981,13.137443100000041],[-59.630850599999974,13.137251000000049],[-59.630739199999937,13.137105800000029],[-59.630475199999978,13.137297900000021],[-59.630586699999981,13.137443100000041]]]},"properties":{"OBJECTID":11,"FID":10,"name":"Caricom Research Building","Shape_Length":0.0010189901302102775,"Shape_Area":5.9735085004748866e-08}},{"type":"Feature","id":12,"geometry":{"type":"Polygon","coordinates":[[[-59.629894199999967,13.137145400000065],[-59.629996499999947,13.137079400000061],[-59.629845299999943,13.136857300000031],[-59.629860599999972,13.136847400000022],[-59.62980639999995,13.13676780000003],[-59.62968879999994,13.136843800000065],[-59.629894199999967,13.137145400000065]]]},"properties":{"OBJECTID":12,"FID":11,"name":"The Alister McIntyre Building","Shape_Length":0.0010098687643434637,"Shape_Area":4.6181795006016237e-08}},{"type":"Feature","id":13,"geometry":{"type":"Polygon","coordinates":[[[-59.628953699999954,13.133116600000051],[-59.628912499999956,13.133088400000076],[-59.628755999999953,13.133304800000076],[-59.628852299999949,13.133370800000023],[-59.628974199999959,13.133202100000062],[-59.629063799999983,13.133263600000078],[-59.62913489999994,13.133165400000053],[-59.628990199999976,13.133066100000065],[-59.628953699999954,13.133116600000051]]]},"properties":{"OBJECTID":13,"FID":12,"name":"Faculty of Social Sciences","Shape_Length":0.0011095840383041229,"Shape_Area":4.8488504995356409e-08}},{"type":"Feature","id":14,"geometry":{"type":"Polygon","coordinates":[[[-59.627986399999941,13.13311600000003],[-59.627773699999977,13.132939100000044],[-59.627602099999933,13.13313480000005],[-59.627814799999953,13.133311700000036],[-59.627986399999941,13.13311600000003]]]},"properties":{"OBJECTID":14,"FID":13,"name":"\"The Golden Stool\" New Administration Building","Shape_Length":0.0010738564199357574,"Shape_Area":7.1981429999953704e-08}},{"type":"Feature","id":15,"geometry":{"type":"Polygon","coordinates":[[[-59.629166999999939,13.134531000000038],[-59.629127899999958,13.134586800000022],[-59.628968999999984,13.134481400000027],[-59.628898899999967,13.134581400000059],[-59.628922499999987,13.134597100000065],[-59.628889199999946,13.134644700000024],[-59.628939799999955,13.134678300000076],[-59.628873799999951,13.134772500000054],[-59.629083599999944,13.134911700000032],[-59.629185099999972,13.134766700000057],[-59.629276799999957,13.134827500000029],[-59.629345999999941,13.134728600000074],[-59.629167499999937,13.134610100000032],[-59.629204299999969,13.134557500000028],[-59.629449099999931,13.13471990000005],[-59.629504999999938,13.134639900000025],[-59.629004499999951,13.134307800000045],[-59.628949399999954,13.134386600000028],[-59.629166999999939,13.134531000000038]]]},"properties":{"OBJECTID":15,"FID":14,"name":"Roy Marshall Teaching Complex","Shape_Length":0.0029304176030883256,"Shape_Area":1.6354698999712453e-07}},{"type":"Feature","id":16,"geometry":{"type":"Polygon","coordinates":[[[-59.630213799999979,13.133382100000063],[-59.629978599999959,13.133218500000055],[-59.629858799999965,13.133381800000052],[-59.629891999999984,13.133405000000039],[-59.629803399999957,13.133525800000029],[-59.629966799999977,13.13363940000005],[-59.630055399999947,13.133518600000059],[-59.630093999999985,13.13354540000006],[-59.630213799999979,13.133382100000063]]]},"properties":{"OBJECTID":16,"FID":15,"name":"Sidney Martin Library","Shape_Length":0.0012776859275742038,"Shape_Area":8.7826600001403323e-08}},{"type":"Feature","id":17,"geometry":{"type":"Polygon","coordinates":[[[-59.630137399999967,13.137373400000058],[-59.63012219999996,13.137390900000071],[-59.630056799999977,13.137337200000047],[-59.629997899999978,13.137405200000046],[-59.630073399999958,13.13746720000006],[-59.630094999999983,13.137442300000032],[-59.630159999999933,13.137495800000067],[-59.630139199999974,13.137519800000064],[-59.630236199999956,13.137599400000056],[-59.630290199999934,13.137537000000066],[-59.630203999999935,13.13746610000004],[-59.630211499999973,13.137457400000073],[-59.630165299999987,13.137419400000056],[-59.630176999999946,13.137405900000033],[-59.630137399999967,13.137373400000058]]]},"properties":{"OBJECTID":17,"FID":16,"name":"Campus Office of Planning and Projects","Shape_Length":0.00090437943435868614,"Shape_Area":2.5537779996763788e-08}},{"type":"Feature","id":18,"geometry":{"type":"Polygon","coordinates":[[[-59.63285529999996,13.134461900000076],[-59.632853599999976,13.134458500000051],[-59.632741799999962,13.134513800000036],[-59.632595099999946,13.134586500000069],[-59.632632299999955,13.13465780000007],[-59.632615499999986,13.134666100000061],[-59.632691499999964,13.134811600000035],[-59.632726699999978,13.134794200000044],[-59.632765799999959,13.134869000000037],[-59.632833399999981,13.134835600000031],[-59.632817999999986,13.134806100000048],[-59.63296859999997,13.134731500000044],[-59.632979599999942,13.134752500000047],[-59.633029599999986,13.134727700000042],[-59.632973799999945,13.134620600000062],[-59.632944499999951,13.134635100000025],[-59.632914099999937,13.134577000000036],[-59.632948099999965,13.134560200000067],[-59.632888299999934,13.134445600000049],[-59.63285529999996,13.134461900000076]]]},"properties":{"OBJECTID":18,"FID":17,"name":"Post Graduate Teaching Complex","Shape_Length":0.0014585224125029954,"Shape_Area":9.8882949997020261e-08}},{"type":"Feature","id":19,"geometry":{"type":"Polygon","coordinates":[[[-59.627845399999956,13.133735400000035],[-59.627845899999954,13.13370800000007],[-59.627875199999949,13.133708500000068],[-59.627876199999946,13.133652000000041],[-59.627846899999952,13.133651500000042],[-59.627847399999951,13.133619300000078],[-59.627511399999946,13.133614100000045],[-59.627509599999939,13.133730200000059],[-59.627845399999956,13.133735400000035]]]},"properties":{"OBJECTID":19,"FID":18,"name":"Open Campus Centre","Shape_Length":0.0009627202720477729,"Shape_Area":4.0667419996782192e-08}},{"type":"Feature","id":20,"geometry":{"type":"Polygon","coordinates":[[[-59.631383199999959,13.134692800000039],[-59.631578299999944,13.134829600000046],[-59.631649899999957,13.134732800000052],[-59.631622299999947,13.134713500000032],[-59.631651499999975,13.134674000000075],[-59.631532599999957,13.134590600000024],[-59.631503299999963,13.134630100000038],[-59.631454799999972,13.134596000000045],[-59.631444099999953,13.134610400000042],[-59.631368299999963,13.134557200000074],[-59.63131629999998,13.134627400000056],[-59.631392199999937,13.134680600000024],[-59.631383199999959,13.134692800000039]]]},"properties":{"OBJECTID":20,"FID":19,"name":"Guild Studen Union/ Campus Pharmacy","Shape_Length":0.0010009426293516989,"Shape_Area":4.3898369998000816e-08}},{"type":"Feature","id":21,"geometry":{"type":"Polygon","coordinates":[[[-59.631560099999945,13.135383400000023],[-59.631520999999964,13.135436600000048],[-59.631813999999963,13.135641000000021],[-59.631827499999986,13.135622700000056],[-59.631846699999983,13.135636000000034],[-59.631872399999963,13.135601200000053],[-59.631622899999968,13.135427200000038],[-59.631819499999949,13.135159800000054],[-59.631774199999938,13.135128200000054],[-59.631802799999946,13.135089300000061],[-59.631763899999953,13.135062100000027],[-59.63173519999998,13.135101000000077],[-59.631630499999972,13.135028000000034],[-59.631655199999955,13.134994400000039],[-59.63171959999994,13.135039400000039],[-59.631823499999939,13.134898000000021],[-59.631759099999954,13.134853100000043],[-59.631777799999952,13.134827700000073],[-59.631669399999964,13.134752000000049],[-59.631619599999965,13.134819800000059],[-59.631669199999976,13.134854400000052],[-59.631541999999968,13.135027200000025],[-59.631747799999971,13.13517070000006],[-59.631580799999938,13.135397800000021],[-59.631560099999945,13.135383400000023]]]},"properties":{"OBJECTID":21,"FID":20,"name":" Sherlock Hall Halls of Residence","Shape_Length":0.0029308346439615679,"Shape_Area":9.3151369988474281e-08}},{"type":"Feature","id":22,"geometry":{"type":"Polygon","coordinates":[[[-59.631334999999979,13.133954000000074],[-59.631248592999953,13.133893336000028],[-59.631195798999954,13.13394930100003],[-59.63105859999996,13.134134900000049],[-59.631152499999985,13.134200700000065],[-59.631203899999946,13.134131300000035],[-59.631233699999939,13.134152200000074],[-59.631292799999983,13.134072300000071],[-59.631262999999933,13.134051400000033],[-59.631334999999979,13.133954000000074]]]},"properties":{"OBJECTID":22,"FID":21,"name":"School of Education","Shape_Length":0.0009076404104195443,"Shape_Area":3.8471598741038387e-08}},{"type":"Feature","id":23,"geometry":{"type":"Polygon","coordinates":[[[-59.63106659999994,13.134425400000055],[-59.63115879999998,13.134300800000062],[-59.631011599999965,13.134197500000028],[-59.630919399999982,13.134322200000042],[-59.63106659999994,13.134425400000055]]]},"properties":{"OBJECTID":23,"FID":22,"name":"Book Shop","Shape_Length":0.00066968887384408508,"Shape_Area":2.7868130002217364e-08}},{"type":"Feature","id":24,"geometry":{"type":"Polygon","coordinates":[[[-59.631368299999963,13.134557200000074],[-59.631394999999941,13.134521000000063],[-59.631414099999972,13.134534400000064],[-59.63143279999997,13.134509100000059],[-59.631379999999979,13.134472100000039],[-59.631398099999956,13.134447700000067],[-59.631229399999938,13.134329300000047],[-59.631224799999984,13.134335400000055],[-59.631195799999944,13.134315000000072],[-59.631098299999962,13.134446800000035],[-59.63112719999998,13.134467100000052],[-59.631109299999935,13.134491400000059],[-59.631151999999986,13.134521300000074],[-59.631169899999975,13.134497100000033],[-59.631288899999959,13.134580600000049],[-59.631275499999958,13.134598800000049],[-59.63131629999998,13.134627400000056],[-59.631368299999963,13.134557200000074]]]},"properties":{"OBJECTID":24,"FID":23,"name":"Mount Restaurant/Solutions Centre","Shape_Length":0.0010606580606428747,"Shape_Area":5.0411320000063756e-08}},{"type":"Feature","id":25,"geometry":{"type":"Polygon","coordinates":[[[-59.633786899999961,13.137769900000023],[-59.633926899999949,13.137715600000035],[-59.633874999999932,13.137588500000049],[-59.633858399999951,13.13754780000005],[-59.633811099999946,13.137432000000047],[-59.63377829999996,13.137444800000026],[-59.633766499999979,13.137416100000053],[-59.633784899999966,13.137409000000048],[-59.633705099999986,13.137213400000064],[-59.633579499999939,13.137262000000021],[-59.633786899999961,13.137769900000023]]]},"properties":{"OBJECTID":25,"FID":24,"name":"Faculty of Sports","Shape_Length":0.0014369956553769675,"Shape_Area":7.7991284996484696e-08}},{"type":"Feature","id":26,"geometry":{"type":"Polygon","coordinates":[[[-59.628220399999975,13.134768400000041],[-59.628300199999956,13.134620600000062],[-59.628070899999955,13.134503100000074],[-59.627990999999952,13.134650800000031],[-59.628220399999975,13.134768400000041]]]},"properties":{"OBJECTID":26,"FID":25,"name":"aintenance Dept. Administration","Shape_Length":0.00085133270246446561,"Shape_Area":4.327282999338217e-08}},{"type":"Feature","id":27,"geometry":{"type":"Polygon","coordinates":[[[-59.627666899999952,13.13482700000003],[-59.627717899999936,13.134769600000027],[-59.62768159999996,13.134739100000047],[-59.627630699999941,13.134796600000072],[-59.627666899999952,13.13482700000003]]]},"properties":{"OBJECTID":27,"FID":26,"name":"Shuttle Shed 1","Shape_Length":0.00024826017132014393,"Shape_Area":3.6339899986161696e-09}},{"type":"Feature","id":28,"geometry":{"type":"Polygon","coordinates":[[[-59.628660099999934,13.135310200000049],[-59.628735199999937,13.135171300000025],[-59.628499899999952,13.135050600000056],[-59.628424799999948,13.135189500000024],[-59.628660099999934,13.135310200000049]]]},"properties":{"OBJECTID":28,"FID":27,"name":"agicor Centre for Lifelong Learning","Shape_Length":0.00084470806981143203,"Shape_Area":4.1747739997270656e-08}},{"type":"Feature","id":29,"geometry":{"type":"Polygon","coordinates":[[[-59.628395999999952,13.135172000000068],[-59.628471099999956,13.135033100000044],[-59.628146899999933,13.134866800000054],[-59.628071799999987,13.135005700000022],[-59.628395999999952,13.135172000000068]]]},"properties":{"OBJECTID":29,"FID":28,"name":"CLICO Centre for Teaching Excellence","Shape_Length":0.0010445336937702423,"Shape_Area":5.7520509995155129e-08}},{"type":"Feature","id":30,"geometry":{"type":"Polygon","coordinates":[[[-59.629860999999948,13.132939800000031],[-59.629728899999975,13.132875800000022],[-59.629684899999972,13.132961900000055],[-59.629816999999946,13.133025900000064],[-59.629860999999948,13.132939800000031]]]},"properties":{"OBJECTID":30,"FID":29,"name":"Aquaculture Research Laboratory","Shape_Length":0.00048695653484312929,"Shape_Area":1.4189810002596084e-08}},{"type":"Feature","id":31,"geometry":{"type":"Polygon","coordinates":[[[-59.629645099999948,13.132769400000029],[-59.62965289999994,13.132664700000078],[-59.629563099999984,13.13265830000006],[-59.629561199999955,13.132683200000031],[-59.629521599999975,13.132680400000027],[-59.629515599999934,13.132760300000029],[-59.629645099999948,13.132769400000029]]]},"properties":{"OBJECTID":31,"FID":30,"name":"Centre for Resource Management & Environmental Studies (CERMES)","Shape_Length":0.00046963346789925223,"Shape_Area":1.2642559995351124e-08}},{"type":"Feature","id":32,"geometry":{"type":"Polygon","coordinates":[[[-59.631978599999968,13.132857200000046],[-59.631960499999934,13.13286080000006],[-59.631969499999968,13.132903600000077],[-59.632020099999977,13.132893500000023],[-59.632012399999951,13.132856900000036],[-59.632136799999955,13.13283210000003],[-59.632127699999955,13.132788700000049],[-59.631970799999976,13.132820000000038],[-59.631978599999968,13.132857200000046]]]},"properties":{"OBJECTID":32,"FID":31,"name":"Guard Hut Security","Shape_Length":0.00052038214694849559,"Shape_Area":9.1392149988838942e-09}},{"type":"Feature","id":33,"geometry":{"type":"Polygon","coordinates":[[[-59.631896099999949,13.137125000000026],[-59.631926299999975,13.137049200000035],[-59.63194969999995,13.13706030000003],[-59.631966499999976,13.136955200000045],[-59.631947099999934,13.136948000000075],[-59.632013399999948,13.136869600000068],[-59.632035599999938,13.136789300000032],[-59.632022799999959,13.136688800000059],[-59.631966499999976,13.136611100000039],[-59.631887399999982,13.136564000000021],[-59.631800199999986,13.136648900000068],[-59.631875299999933,13.136692000000039],[-59.631902099999934,13.136724700000059],[-59.631908799999962,13.136756000000048],[-59.631910199999936,13.136808300000041],[-59.631971199999953,13.136828500000036],[-59.63194569999996,13.136850700000025],[-59.631909499999949,13.136839000000066],[-59.631839099999979,13.136892500000044],[-59.631856499999969,13.136940200000026],[-59.631798899999978,13.136977400000035],[-59.631814199999951,13.137023200000044],[-59.631802899999968,13.137027000000046],[-59.631786799999986,13.137053800000047],[-59.631785499999978,13.137091000000055],[-59.631796899999983,13.137118400000077],[-59.631831699999964,13.137141400000075],[-59.631847099999959,13.137102800000036],[-59.631896099999949,13.137125000000026]]]},"properties":{"OBJECTID":33,"FID":32,"name":"Errol Barrow Centre for Creative Imagination","Shape_Length":0.0016841503216229307,"Shape_Area":7.1677999997461934e-08}},{"type":"Feature","id":34,"geometry":{"type":"Polygon","coordinates":[[[-59.630794899999955,13.136360700000068],[-59.630803199999946,13.13629700000007],[-59.630701299999942,13.136284500000045],[-59.630692999999951,13.136348200000043],[-59.630794899999955,13.136360700000068]]]},"properties":{"OBJECTID":34,"FID":33,"name":"Media Centre","Shape_Length":0.00033380456462050252,"Shape_Area":6.5947800001882943e-09}},{"type":"Feature","id":35,"geometry":{"type":"Polygon","coordinates":[[[-59.629564599999981,13.135353300000077],[-59.629773599999965,13.135522200000025],[-59.629868999999985,13.135410300000046],[-59.629659999999944,13.135241300000075],[-59.629564599999981,13.135353300000077]]]},"properties":{"OBJECTID":35,"FID":34,"name":"Confucius Institute","Shape_Length":0.00083166434404662298,"Shape_Area":3.951537999419684e-08}},{"type":"Feature","id":36,"geometry":{"type":"Polygon","coordinates":[[[-59.629775299999949,13.136184100000037],[-59.629749699999934,13.136069400000054],[-59.62963179999997,13.136094400000047],[-59.629657399999985,13.136209100000031],[-59.629775299999949,13.136184100000037]]]},"properties":{"OBJECTID":36,"FID":35,"name":" Frank Worrel Hall","Shape_Length":0.00047608706882637579,"Shape_Area":1.4163129994088333e-08}},{"type":"Feature","id":37,"geometry":{"type":"Polygon","coordinates":[[[-59.62983399999996,13.13640810000004],[-59.629805899999951,13.136253100000033],[-59.629722299999969,13.136267500000031],[-59.629750399999978,13.136422500000037],[-59.62983399999996,13.13640810000004]]]},"properties":{"OBJECTID":37,"FID":36,"name":" Frank Worrel Hall","Shape_Length":0.00048471532759971074,"Shape_Area":1.3362639997850748e-08}},{"type":"Feature","id":38,"geometry":{"type":"Polygon","coordinates":[[[-59.630271799999946,13.13637650000004],[-59.630300299999988,13.136307800000054],[-59.630144799999982,13.136246800000038],[-59.630116399999963,13.136315500000023],[-59.630271799999946,13.13637650000004]]]},"properties":{"OBJECTID":38,"FID":37,"name":" Frank Worrel Hall","Shape_Length":0.00048269602015175788,"Shape_Area":1.2414864999700589e-08}},{"type":"Feature","id":39,"geometry":{"type":"Polygon","coordinates":[[[-59.630071799999939,13.136368100000027],[-59.630098699999962,13.136294300000031],[-59.629931099999965,13.136236300000064],[-59.629904199999942,13.13631010000006],[-59.630071799999939,13.136368100000027]]]},"properties":{"OBJECTID":39,"FID":38,"name":" Frank Worrel Hall","Shape_Length":0.0005118034900351531,"Shape_Area":1.3929079999527744e-08}},{"type":"Feature","id":40,"geometry":{"type":"Polygon","coordinates":[[[-59.630010299999981,13.136500300000023],[-59.630027799999937,13.136459200000047],[-59.629977099999962,13.136438700000042],[-59.62995959999995,13.136479800000075],[-59.630010299999981,13.136500300000023]]]},"properties":{"OBJECTID":40,"FID":39,"name":" Frank Worrel Hall","Shape_Length":0.00019871646106257434,"Shape_Area":2.4425199995956195e-09}},{"type":"Feature","id":41,"geometry":{"type":"Polygon","coordinates":[[[-59.630138399999964,13.136539900000059],[-59.630170199999952,13.136461900000029],[-59.630089099999964,13.136430500000074],[-59.630057299999976,13.136508500000048],[-59.630138399999964,13.136539900000059]]]},"properties":{"OBJECTID":41,"FID":40,"name":" Frank Worrel Hall","Shape_Length":0.000342399470743268,"Shape_Area":7.3243199983558613e-09}},{"type":"Feature","id":42,"geometry":{"type":"Polygon","coordinates":[[[-59.630442499999958,13.136441000000048],[-59.630293399999971,13.136381000000029],[-59.630263799999966,13.136450700000069],[-59.630412899999953,13.136510700000031],[-59.630442499999958,13.136441000000048]]]},"properties":{"OBJECTID":42,"FID":41,"name":" Frank Worrel Hall","Shape_Length":0.00047288898713319482,"Shape_Area":1.2168270000862783e-08}},{"type":"Feature","id":43,"geometry":{"type":"Polygon","coordinates":[[[-59.630442499999958,13.13671910000005],[-59.630497499999933,13.136581400000068],[-59.630425999999943,13.136554300000057],[-59.630370999999968,13.136692000000039],[-59.630442499999958,13.13671910000005]]]},"properties":{"OBJECTID":43,"FID":42,"name":" Frank Worrel Hall","Shape_Length":0.00044948240286164819,"Shape_Area":1.1336049997271289e-08}},{"type":"Feature","id":44,"geometry":{"type":"Polygon","coordinates":[[[-59.629572399999972,13.136325900000031],[-59.629601799999932,13.136258700000042],[-59.629451199999949,13.136196200000029],[-59.629421799999932,13.136263400000075],[-59.629572399999972,13.136325900000031]]]},"properties":{"OBJECTID":44,"FID":43,"name":" Frank Worrel Hall","Shape_Length":0.00047280771219877023,"Shape_Area":1.1957820002311989e-08}},{"type":"Feature","id":45,"geometry":{"type":"Polygon","coordinates":[[[-59.629446399999949,13.136406400000055],[-59.629462599999954,13.13636340000005],[-59.629412199999933,13.136345300000073],[-59.629395999999986,13.136388300000021],[-59.629446399999949,13.136406400000055]]]},"properties":{"OBJECTID":45,"FID":44,"name":" Frank Worrel Hall","Shape_Length":0.00019900394390143971,"Shape_Area":2.4604199981438332e-09}},{"type":"Feature","id":46,"geometry":{"type":"Polygon","coordinates":[[[-59.629535299999986,13.136487800000054],[-59.629567099999974,13.13641210000003],[-59.629481199999987,13.136377800000048],[-59.629449399999942,13.13645340000005],[-59.629535299999986,13.136487800000054]]]},"properties":{"OBJECTID":46,"FID":45,"name":" Frank Worrel Hall","Shape_Length":0.00034915074996127115,"Shape_Area":7.5906650027299647e-09}},{"type":"Feature","id":47,"geometry":{"type":"Polygon","coordinates":[[[-59.629418199999975,13.136236800000063],[-59.629447699999957,13.136168400000031],[-59.62929459999998,13.13610570000003],[-59.629265099999941,13.136174100000062],[-59.629418199999975,13.136236800000063]]]},"properties":{"OBJECTID":47,"FID":46,"name":" Frank Worrel Hall","Shape_Length":0.00047986373087971197,"Shape_Area":1.2321690005980476e-08}},{"type":"Feature","id":48,"geometry":{"type":"Polygon","coordinates":[[[-59.629882599999974,13.136037600000066],[-59.629863599999965,13.13589410000003],[-59.629779999999982,13.13590460000006],[-59.629798999999934,13.136048200000062],[-59.629882599999974,13.136037600000066]]]},"properties":{"OBJECTID":48,"FID":47,"name":" Frank Worrel Hall","Shape_Length":0.00045813002493593576,"Shape_Area":1.2201230003108217e-08}},{"type":"Feature","id":49,"geometry":{"type":"Polygon","coordinates":[[[-59.629610199999945,13.135826400000042],[-59.629755899999964,13.135886700000071],[-59.629785599999934,13.135818700000073],[-59.62963979999995,13.135758400000043],[-59.629610199999945,13.135826400000042]]]},"properties":{"OBJECTID":49,"FID":48,"name":" Frank Worrel Hall","Shape_Length":0.0004638286316288921,"Shape_Area":1.1698895000069563e-08}},{"type":"Feature","id":50,"geometry":{"type":"Polygon","coordinates":[[[-59.629512499999976,13.135955200000069],[-59.629567699999939,13.135933300000033],[-59.629552299999943,13.135896600000024],[-59.62949709999998,13.135918500000059],[-59.629512499999976,13.135955200000069]]]},"properties":{"OBJECTID":50,"FID":49,"name":" Frank Worrel Hall","Shape_Length":0.00019837145985982391,"Shape_Area":2.3630999996180748e-09}},{"type":"Feature","id":51,"geometry":{"type":"Polygon","coordinates":[[[-59.629288999999972,13.135862000000031],[-59.629335099999935,13.135766300000057],[-59.629299699999933,13.135750100000052],[-59.62925359999997,13.135845900000049],[-59.629288999999972,13.135862000000031]]]},"properties":{"OBJECTID":51,"FID":50,"name":" Guard Hut Security","Shape_Length":0.00029035953346253523,"Shape_Area":4.1340649987399368e-09}},{"type":"Feature","id":52,"geometry":{"type":"Polygon","coordinates":[[[-59.629626299999984,13.136064500000032],[-59.629657799999961,13.135992700000031],[-59.629571999999939,13.135955400000057],[-59.629543099999978,13.136030500000061],[-59.629626299999984,13.136064500000032]]]},"properties":{"OBJECTID":52,"FID":51,"name":" Frank Worrel Hall","Shape_Length":0.00034231080726207481,"Shape_Area":7.2831549992844991e-09}},{"type":"Feature","id":53,"geometry":{"type":"Polygon","coordinates":[[[-59.629414099999963,13.135825400000044],[-59.629560599999934,13.135888900000054],[-59.629591999999946,13.135820000000024],[-59.629445499999974,13.135756600000036],[-59.629414099999963,13.135825400000044]]]},"properties":{"OBJECTID":53,"FID":52,"name":" Frank Worrel Hall","Shape_Length":0.00047064461532874812,"Shape_Area":1.2078855001571786e-08}},{"type":"Feature","id":54,"geometry":{"type":"Polygon","coordinates":[[[-59.630730299999982,13.133700600000054],[-59.630950499999983,13.133843700000057],[-59.631004299999972,13.13376530000005],[-59.630784099999971,13.133622100000025],[-59.630730299999982,13.133700600000054]]]},"properties":{"OBJECTID":54,"FID":53,"name":"CARDI","Shape_Length":0.00071553155774211523,"Shape_Area":2.4976160003234262e-08}},{"type":"Feature","id":55,"geometry":{"type":"Polygon","coordinates":[[[-59.631822599999964,13.136247400000059],[-59.63197219999995,13.135891400000048],[-59.631924599999934,13.135872400000039],[-59.631908199999941,13.135911500000077],[-59.631825899999967,13.135878700000035],[-59.631776999999943,13.135994900000071],[-59.631760199999974,13.135988200000043],[-59.631706999999949,13.13611480000003],[-59.631684599999971,13.136168200000043],[-59.631734299999948,13.136188000000061],[-59.631725599999982,13.136208700000054],[-59.631822599999964,13.136247400000059]]]},"properties":{"OBJECTID":55,"FID":54,"name":"CLR James Centre for Cricket Research","Shape_Length":0.0010881792264877362,"Shape_Area":5.2978905000765566e-08}},{"type":"Feature","id":56,"geometry":{"type":"Polygon","coordinates":[[[-59.630359399999975,13.133334800000057],[-59.630508599999985,13.133432600000049],[-59.630488499999956,13.133461600000032],[-59.630609899999968,13.133541100000059],[-59.630697899999973,13.133413800000028],[-59.630575099999987,13.133333300000061],[-59.630561499999942,13.133353000000056],[-59.630545699999971,13.133342600000049],[-59.630573099999935,13.133303000000069],[-59.63044119999995,13.13321650000006],[-59.630359399999975,13.133334800000057]]]},"properties":{"OBJECTID":56,"FID":55,"name":"Faculty of Medical Sciences","Shape_Length":0.0010529547471755734,"Shape_Area":4.7142324996058081e-08}},{"type":"Feature","id":57,"geometry":{"type":"Polygon","coordinates":[[[-59.630478299999936,13.134362700000054],[-59.630177599999968,13.134155900000053],[-59.630249399999968,13.134056900000076],[-59.63015809999996,13.133994100000052],[-59.630082999999956,13.134097600000075],[-59.630019199999936,13.134185700000046],[-59.630411199999969,13.13445530000007],[-59.630478299999936,13.134362700000054]]]},"properties":{"OBJECTID":57,"FID":56,"name":"Physics Building","Shape_Length":0.0014248235687142181,"Shape_Area":6.7939155003164413e-08}},{"type":"Feature","id":58,"geometry":{"type":"Polygon","coordinates":[[[-59.629564599999981,13.13302340000007],[-59.629532900999948,13.133067899000025],[-59.629363464999983,13.13330237100007],[-59.629760899999951,13.133570600000041],[-59.62987899999996,13.133404600000063],[-59.629849699999966,13.133384900000067],[-59.629969299999971,13.133216800000071],[-59.629834399999936,13.133125800000073],[-59.629796099999965,13.133179600000062],[-59.629564599999981,13.13302340000007]]]},"properties":{"OBJECTID":58,"FID":57,"name":"Arts Lecture Theatre","Shape_Length":0.0017767686773172298,"Shape_Area":1.7020605232867037e-07}},{"type":"Feature","id":59,"geometry":{"type":"Polygon","coordinates":[[[-59.630070599999954,13.133908100000042],[-59.630233399999952,13.134015800000043],[-59.630260899999939,13.133976400000051],[-59.63019509999998,13.133932900000048],[-59.630220999999949,13.133895800000062],[-59.630123999999967,13.133831600000065],[-59.630070599999954,13.133908100000042]]]},"properties":{"OBJECTID":59,"FID":58,"name":"Faculty of Science and Technology","Shape_Length":0.0005769888917420557,"Shape_Area":1.4635014997627489e-08}},{"type":"Feature","id":60,"geometry":{"type":"Polygon","coordinates":[[[-59.630230999999981,13.133448600000065],[-59.630109699999934,13.133624700000041],[-59.630159499999934,13.133657200000073],[-59.630115799999942,13.133720600000061],[-59.63031529999995,13.133850900000027],[-59.630375899999933,13.133763000000044],[-59.630227899999966,13.133666300000073],[-59.630262799999969,13.133615600000041],[-59.630538799999954,13.133795900000052],[-59.630503099999942,13.133847800000069],[-59.630486599999983,13.133871700000043],[-59.630616199999963,13.133956300000023],[-59.630703399999959,13.13382960000007],[-59.63062999999994,13.133781600000077],[-59.630664399999944,13.133731700000055],[-59.630230999999981,13.133448600000065]]]},"properties":{"OBJECTID":60,"FID":59,"name":"Dept. of Biological Sciences","Shape_Length":0.0023299533867173127,"Shape_Area":1.1768541498741425e-07}},{"type":"Feature","id":61,"geometry":{"type":"Polygon","coordinates":[[[-59.630516699999987,13.134066200000063],[-59.63058499999994,13.13396750000004],[-59.630540999999937,13.133938600000022],[-59.630525199999965,13.133961500000055],[-59.630492599999968,13.13394020000004],[-59.630512999999951,13.133910600000036],[-59.630458399999952,13.133874800000058],[-59.630385599999954,13.133980300000076],[-59.630516699999987,13.134066200000063]]]},"properties":{"OBJECTID":61,"FID":60,"name":"Dept. of Computer Science, Maths & Physics (CSMP)","Shape_Length":0.00062558747065015984,"Shape_Area":1.826733000202741e-08}},{"type":"Feature","id":62,"geometry":{"type":"Polygon","coordinates":[[[-59.63082529999997,13.133906600000046],[-59.630720499999939,13.133837600000049],[-59.630423499999949,13.134265500000026],[-59.63052829999998,13.134334500000023],[-59.63082529999997,13.133906600000046]]]},"properties":{"OBJECTID":62,"FID":61,"name":"Chemistry Building","Shape_Length":0.0012926940707427721,"Shape_Area":6.5336920009001206e-08}},{"type":"Feature","id":63,"geometry":{"type":"Polygon","coordinates":[[[-59.630939999999953,13.134145400000023],[-59.631001799999979,13.134060500000032],[-59.630837499999984,13.133947000000035],[-59.630775699999958,13.134031900000025],[-59.630939999999953,13.134145400000023]]]},"properties":{"OBJECTID":63,"FID":62,"name":"Chemical Sciences","Shape_Length":0.00060940465196615144,"Shape_Area":2.0963370000724295e-08}},{"type":"Feature","id":64,"geometry":{"type":"Polygon","coordinates":[[[-59.628707099999986,13.133314800000051],[-59.628735399999982,13.133274800000038],[-59.628672399999971,13.133232600000042],[-59.628697099999954,13.133197800000062],[-59.628763799999945,13.133242500000051],[-59.628797399999939,13.133195100000023],[-59.628726899999947,13.133147800000074],[-59.62877089999995,13.133085600000072],[-59.628841699999953,13.133133100000066],[-59.628889399999935,13.133065800000054],[-59.628767399999958,13.132983900000056],[-59.628589199999965,13.133235700000057],[-59.628707099999986,13.133314800000051]]]},"properties":{"OBJECTID":64,"FID":63,"name":"Institute of Gender and Development Studies: Nita Barrow Unit","Shape_Length":0.0012321243524687248,"Shape_Area":3.5098099998557059e-08}},{"type":"Feature","id":65,"geometry":{"type":"Polygon","coordinates":[[[-59.628490199999987,13.133298500000024],[-59.628551099999981,13.133371100000033],[-59.628615199999956,13.133320800000035],[-59.62854109999995,13.133226800000045],[-59.62857699999995,13.133175000000051],[-59.628488999999945,13.13311740000006],[-59.628326299999969,13.133353100000022],[-59.628351499999951,13.133369600000037],[-59.628332599999965,13.133397100000025],[-59.628424699999982,13.133457400000054],[-59.628498699999966,13.133350300000075],[-59.628468199999986,13.133330400000034],[-59.628490199999987,13.133298500000024]]]},"properties":{"OBJECTID":65,"FID":64,"name":"Dept. of Management Studies","Shape_Length":0.001129455931745131,"Shape_Area":4.5980224998035189e-08}},{"type":"Feature","id":66,"geometry":{"type":"Polygon","coordinates":[[[-59.628307499999949,13.134192900000073],[-59.628692599999965,13.134448100000043],[-59.628750399999944,13.134365500000058],[-59.628365199999962,13.134110200000066],[-59.628307499999949,13.134192900000073]]]},"properties":{"OBJECTID":66,"FID":65,"name":"Campus IT Services (CITS)","Shape_Length":0.0011257602975760744,"Shape_Area":4.6573334996363582e-08}},{"type":"Feature","id":67,"geometry":{"type":"Polygon","coordinates":[[[-59.632684599999948,13.136111600000049],[-59.632807799999966,13.135915100000034],[-59.632731399999955,13.135869700000057],[-59.632706699999972,13.135909100000049],[-59.632645099999934,13.135872500000062],[-59.632592299999942,13.135956700000065],[-59.632555299999979,13.135934700000064],[-59.63253629999997,13.135965000000056],[-59.632598599999938,13.136002000000076],[-59.632571899999959,13.136044600000048],[-59.632684599999948,13.136111600000049]]]},"properties":{"OBJECTID":67,"FID":66,"name":"Student Gym","Shape_Length":0.00087099679798162519,"Shape_Area":3.3946779999600937e-08}},{"type":"Feature","id":68,"geometry":{"type":"Polygon","coordinates":[[[-59.630011599999932,13.133713300000068],[-59.629817399999979,13.133582300000057],[-59.629668099999947,13.133792200000073],[-59.629203400999984,13.133478599000057],[-59.629138112999954,13.13355843100004],[-59.630011599999932,13.134147900000073],[-59.630064999999945,13.134072900000035],[-59.629856099999984,13.13393190000005],[-59.630011599999932,13.133713300000068]]]},"properties":{"OBJECTID":68,"FID":67,"name":"Leslie Robinson Building","Shape_Length":0.0028217272173276155,"Shape_Area":1.6550576853373241e-07}},{"type":"Feature","id":69,"geometry":{"type":"Polygon","coordinates":[[[-59.62945469999994,13.133015200000045],[-59.629090799999972,13.133526500000073],[-59.629138112999954,13.13355843100004],[-59.629203400999984,13.133478599000057],[-59.629340099999979,13.133286600000076],[-59.629363464999983,13.13330237100007],[-59.629532900999948,13.133067899000025],[-59.62945469999994,13.133015200000045]]]},"properties":{"OBJECTID":69,"FID":68,"name":" Dept. of  History & Philosophy, Language, Linguistics & Literature","Shape_Length":0.0014352503638124644,"Shape_Area":4.8257106697400382e-08}},{"type":"Feature","id":70,"geometry":{"type":"Polygon","coordinates":[[[-59.631139999999959,13.133817100000044],[-59.631095099999982,13.13387780000005],[-59.631033499999944,13.133834600000057],[-59.630990499999939,13.133892700000047],[-59.631077999999945,13.133954100000039],[-59.631091999999967,13.133935200000053],[-59.631140399999936,13.133969100000058],[-59.631168999999943,13.133930500000076],[-59.631195798999954,13.13394930100003],[-59.631248592999953,13.133893336000028],[-59.631139999999959,13.133817100000044]]]},"properties":{"OBJECTID":70,"FID":69,"name":"Staff Gym","Shape_Length":0.00070292192964734241,"Shape_Area":2.0299359115510833e-08}},{"type":"Feature","id":71,"geometry":{"type":"Polygon","coordinates":[[[-59.630362792999961,13.135049385000059],[-59.629969125999935,13.134699033000061],[-59.629635071999985,13.135066903000052],[-59.630024775999971,13.13541372800006],[-59.630362792999961,13.135049385000059]]]},"properties":{"OBJECTID":71,"FID":70,"name":"Graduation Tent","Shape_Length":0.0020425813011648386,"Shape_Area":2.6053671838862288e-07}},{"type":"Feature","id":72,"geometry":{"type":"Polygon","coordinates":[[[-59.629165675999957,13.133880303000069],[-59.62911011999995,13.133810287000074],[-59.629060480999954,13.133848890000024],[-59.629119080999942,13.133922741000049],[-59.629165675999957,13.133880303000069]]]},"properties":{"OBJECTID":72,"FID":71,"name":"Shuttle Shed 2","Shape_Length":0.00030956242733403338,"Shape_Area":5.7740533173006783e-09}},{"type":"Feature","id":73,"geometry":{"type":"Polygon","coordinates":[[[-59.624451473999954,13.146255303000032],[-59.624483527999985,13.145225688000039],[-59.623441785999944,13.145225688000039],[-59.623441783999965,13.146255301000053],[-59.624451473999954,13.146255303000032]]]},"properties":{"OBJECTID":73,"FID":null,"name":"Queens Colledge","Shape_Length":0.004111158832170227,"Shape_Area":1.0560915696711571e-06}},{"type":"Feature","id":74,"geometry":{"type":"Polygon","coordinates":[[[-59.631748166999955,13.144015091000028],[-59.631766454999934,13.143160152000064],[-59.630821803999936,13.143140348000031],[-59.630803388999936,13.14400119000004],[-59.631748166999955,13.144015091000028]]]},"properties":{"OBJECTID":74,"FID":null,"name":"NCF","Shape_Length":0.0036059123467842048,"Shape_Area":8.1077086341023003e-07}},{"type":"Feature","id":75,"geometry":{"type":"Polygon","coordinates":[[[-59.607565868999984,13.141634864000025],[-59.607590737999942,13.140690567000036],[-59.606966532999934,13.140676218000067],[-59.606944380999948,13.141620577000026],[-59.607565868999984,13.141634864000025]]]},"properties":{"OBJECTID":75,"FID":null,"name":"Dome Mall","Shape_Length":0.0031352652929689763,"Shape_Area":5.8850801299499362e-07}},{"type":"Feature","id":76,"geometry":{"type":"Polygon","coordinates":[[[-59.608987432999982,13.142284926000059],[-59.609308891999945,13.141377697000053],[-59.608558819999985,13.141184821000024],[-59.608251647999964,13.142084907000026],[-59.608987432999982,13.142284926000059]]]},"properties":{"OBJECTID":76,"FID":null,"name":"Massy","Shape_Length":0.0034505149048559914,"Shape_Area":7.3309940517569716e-07}},{"type":"Feature","id":78,"geometry":{"type":"Polygon","coordinates":[[[-59.607901614999946,13.140241875000072],[-59.607915901999945,13.139048904000049],[-59.60731584399997,13.139041860000077],[-59.607301556999971,13.140234731000021],[-59.607901614999946,13.140241875000072]]]},"properties":{"OBJECTID":78,"FID":null,"name":"PriceSmart","Shape_Length":0.0035862129696725515,"Shape_Area":7.1592314135638994e-07}},{"type":"Feature","id":79,"geometry":{"type":"Polygon","coordinates":[[[-59.606020464999972,13.141041551000058],[-59.606023390999951,13.140813323000032],[-59.60564011699995,13.140808507000031],[-59.605637240999954,13.14103282700006],[-59.606020464999972,13.141041551000058]]]},"properties":{"OBJECTID":79,"FID":null,"name":"Eunice Gibson Polyclinic","Shape_Length":0.0012192127348492866,"Shape_Area":8.6738924008601867e-08}},{"type":"Feature","id":80,"geometry":{"type":"Polygon","coordinates":[[[-59.618232971999987,13.097770102000027],[-59.618311622999954,13.097479844000077],[-59.617910878999965,13.09738621200006],[-59.617837845999986,13.097665235000022],[-59.618232971999987,13.097770102000027]]]},"properties":{"OBJECTID":80,"FID":null,"name":"CG United","Shape_Length":0.0014094901111664677,"Shape_Area":1.2079569792567101e-07}},{"type":"Feature","id":81,"geometry":{"type":"Polygon","coordinates":[[[-59.613616340999954,13.096908807000034],[-59.613513930999943,13.096510872000067],[-59.613098440999977,13.096613282000021],[-59.61323303599994,13.097037551000028],[-59.613616340999954,13.096908807000034]]]},"properties":{"OBJECTID":81,"FID":null,"name":"Old Treasury Building","Shape_Length":0.0016882817343113459,"Shape_Area":1.7788927447359439e-07}}]}